BEIDOU-2 G7 (C03)       
1 41586U 16037A   25069.85009122 -.00000370  00000+0  00000+0 0  9999
2 41586   1.5252  67.4899 0010569 332.7522 185.0910  1.00270257  2245
TJS-1                   
1 40892U 15046A   25069.86155816 -.00000174  00000+0  00000+0 0  9992
2 40892   0.1414 256.5605 0002309  79.5823 297.7924  1.00271415 34921
EXPRESS-AM8             
1 40895U 15048A   25069.82537513 -.00000129  00000+0  00000+0 0  9991
2 40895   0.0186 203.8023 0000283  49.7839 198.2523  1.00271119 34698
SKY MUSTER 1 (NBN1A)    
1 40940U 15054A   25069.78449983 -.00000296  00000+0  00000+0 0  9992
2 40940   0.0157 211.4360 0001863 132.5535 247.3478  1.00272143 34610
ARSAT 2                 
1 40941U 15054B   25069.81208244 -.00000242  00000+0  00000+0 0  9991
2 40941   0.0288  69.9189 0001876 264.9192  45.2055  1.00271055 34666
MORELOS 3               
1 40946U 15056A   25069.78390705 -.00000059  00000+0  00000+0 0  9994
2 40946   2.9731   0.8984 0003327   1.9777 334.9092  1.00272664 34636
APSTAR-9                
1 40982U 15059A   25069.78484735 -.00000284  00000+0  00000+0 0  9994
2 40982   0.0420 323.2250 0001595   8.5876 261.3996  1.00270451 34476
TURKSAT 4B              
1 40984U 15060A   25069.70808760  .00000097  00000+0  00000+0 0  9999
2 40984   0.0201 130.4384 0002087 203.8327 139.2050  1.00273085 34457
ZHONGXING-2C            
1 41021U 15063A   25069.84870113 -.00000341  00000+0  00000+0 0  9994
2 41021   0.1483  98.6581 0001258 358.3254 120.7158  1.00272708 34355
GSAT-15                 
1 41028U 15065A   25069.83100271 -.00000275  00000+0  00000+0 0  9999
2 41028   0.0640 272.5748 0001657  96.6360 192.1817  1.00271623 34155
BADR-7 (ARABSAT-6B)     
1 41029U 15065B   25069.86989344  .00000127  00000+0  00000+0 0  9994
2 41029   0.0483 237.2944 0003676  18.7970 251.8361  1.00275364 34122
LAOSAT 1                
1 41034U 15067A   25069.85365332 -.00000361  00000+0  00000+0 0  9997
2 41034   0.0531 330.4851 0001905 338.9983 295.0699  1.00270044 34213
ELEKTRO-L 2             
1 41105U 15074A   25069.82520137 -.00000131  00000+0  00000+0 0  9992
2 41105   5.5221  76.2177 0003183 225.1016 149.9398  1.00272355 33868
COSMOS 2513             
1 41121U 15075A   25069.69350233 -.00000155  00000+0  00000+0 0  9990
2 41121   0.0488 103.5956 0001745 283.3461 111.5377  1.00269772 33896
EXPRESS-AMU1            
1 41191U 15082A   25069.83527948  .00000138  00000+0  00000+0 0  9990
2 41191   0.0194 105.9746 0002961 227.2854 172.2461  1.00273630 33621
GAOFEN-4                
1 41194U 15083A   25069.84913553 -.00000352  00000+0  00000+0 0  9995
2 41194   0.0953 293.0840 0001983  85.6069 201.3958  1.00269038 33888
BELINTERSAT-1           
1 41238U 16001A   25069.84211493  .00000090  00000+0  00000+0 0  9997
2 41238   0.0435  65.2576 0001881 201.2728 256.8402  1.00270601 33597
EUTELSAT 9B             
1 41310U 16005A   25069.84766987  .00000044  00000+0  00000+0 0  9994
2 41310   0.0449  68.7025 0004428 255.5681 158.6062  1.00271392 33476
EUTELSAT 65 WEST A      
1 41382U 16014A   25069.81512325 -.00000293  00000+0  00000+0 0  9992
2 41382   0.0764  46.0244 0002210 302.0450  48.8675  1.00270064 32885
IRNSS-1F                
1 41384U 16015A   25069.81919472  .00000142  00000+0  00000+0 0  9991
2 41384   4.1991 108.9211 0020134 188.5989 198.5963  1.00268672 33027
IRNSS-1G                
1 41469U 16027A   25069.85382707 -.00000351  00000+0  00000+0 0  9990
2 41469   4.0628 109.8850 0006188 311.8133 183.8934  1.00277101 32538
JCSAT-2B                
1 41471U 16028A   25069.86155816 -.00000183  00000+0  00000+0 0  9997
2 41471   0.0183 148.6965 0001098 193.7109 290.5004  1.00270597 32475
INTELSAT 31 (IS-31)     
1 41581U 16035A   25063.60236604 -.00000155  00000+0  00000+0 0  9997
2 41581   0.0097 159.5833 0002430  58.6868  66.1041  1.00269923 31971
ABS-2A (MONGOLSAT-1)    
1 41588U 16038A   25069.85878074 -.00000101  00000+0  00000+0 0  9994
2 41588   0.0216 140.0447 0001973 153.1210 259.4871  1.00268751 32067
EUTELSAT 117 WEST B     
1 41589U 16038B   25069.59066971 -.00000029  00000+0  00000+0 0  9990
2 41589   0.0394   9.6237 0000301  84.8355 169.6721  1.00269093 32017
BRISAT                  
1 41591U 16039A   25069.86155816 -.00000214  00000+0  00000+0 0  9997
2 41591   0.0202 165.7241 0002215 179.0632 284.6398  1.00269274 31960
