OBJECT_NAME,OBJECT_ID,EPOCH,MEAN_MOTION,ECCENTRICITY,INCLINATION,RA_OF_ASC_NODE,ARG_OF_PERICENTER,MEAN_ANOMALY,EPHEMERIS_TYPE,CLASSIFICATION_TYPE,NORAD_CAT_ID,ELEMENT_SET_NO,REV_AT_EPOCH,BSTAR,MEAN_MOTION_DOT,MEAN_MOTION_DDOT
TJS-1,2015-046A,2025-03-10T20:40:38.625024,1.00271415,.0002309,0.1414,256.5605,79.5823,297.7924,0,U,40892,999,3492,0,-.174E-5,0
EXPRESS-AM8,2015-048A,2025-03-10T19:48:32.411232,1.00271119,.0000283,0.0186,203.8023,49.7839,198.2523,0,U,40895,999,3469,0,-.129E-5,0
SKY MUSTER 1 (NBN1A),2015-054A,2025-03-10T18:49:40.785312,1.00272143,.0001863,0.0157,211.4360,132.5535,247.3478,0,U,40940,999,3461,0,-.296E-5,0
ARSAT 2,2015-054B,2025-03-10T19:29:23.922816,1.00271055,.0001876,0.0288,69.9189,264.9192,45.2055,0,U,40941,999,3466,0,-.242E-5,0
MORELOS 3,2015-056A,2025-03-10T18:48:49.569120,1.00272664,.0003327,2.9731,0.8984,1.9777,334.9092,0,U,40946,999,3463,0,-.59E-6,0
APSTAR-9,2015-059A,2025-03-10T18:50:10.811040,1.00270451,.0001595,0.0420,323.2250,8.5876,261.3996,0,U,40982,999,3447,0,-.284E-5,0
TURKSAT 4B,2015-060A,2025-03-10T16:59:38.768640,1.00273085,.0002087,0.0201,130.4384,203.8327,139.2050,0,U,40984,999,3445,0,.97E-6,0
ZHONGXING-2C,2015-063A,2025-03-10T20:22:07.777632,1.00272708,.0001258,0.1483,98.6581,358.3254,120.7158,0,U,41021,999,3435,0,-.341E-5,0
GSAT-15,2015-065A,2025-03-10T19:56:38.634144,1.00271623,.0001657,0.0640,272.5748,96.6360,192.1817,0,U,41028,999,3415,0,-.275E-5,0
BADR-7 (ARABSAT-6B),2015-065B,2025-03-10T20:52:38.793216,1.00275364,.0003676,0.0483,237.2944,18.7970,251.8361,0,U,41029,999,3412,0,.127E-5,0
LAOSAT 1,2015-067A,2025-03-10T20:29:15.646848,1.00270044,.0001905,0.0531,330.4851,338.9983,295.0699,0,U,41034,999,3421,0,-.361E-5,0
ELEKTRO-L 2,2015-074A,2025-03-10T19:48:17.398368,1.00272355,.0003183,5.5221,76.2177,225.1016,149.9398,0,U,41105,999,3386,0,-.131E-5,0
COSMOS 2513,2015-075A,2025-03-10T16:38:38.601312,1.00269772,.0001745,0.0488,103.5956,283.3461,111.5377,0,U,41121,999,3389,0,-.155E-5,0
EXPRESS-AMU1,2015-082A,2025-03-10T20:02:48.147072,1.00273630,.0002961,0.0194,105.9746,227.2854,172.2461,0,U,41191,999,3362,0,.138E-5,0
GAOFEN-4,2015-083A,2025-03-10T20:22:45.309792,1.00269038,.0001983,0.0953,293.0840,85.6069,201.3958,0,U,41194,999,3388,0,-.352E-5,0
BELINTERSAT-1,2016-001A,2025-03-10T20:12:38.729952,1.00270601,.0001881,0.0435,65.2576,201.2728,256.8402,0,U,41238,999,3359,0,.9E-6,0
EUTELSAT 9B,2016-005A,2025-03-10T20:20:38.676768,1.00271392,.0004428,0.0449,68.7025,255.5681,158.6062,0,U,41310,999,3347,0,.44E-6,0
EUTELSAT 65 WEST A,2016-014A,2025-03-10T19:33:46.648800,1.00270064,.000221,0.0764,46.0244,302.0450,48.8675,0,U,41382,999,3288,0,-.293E-5,0
IRNSS-1F,2016-015A,2025-03-10T19:39:38.423808,1.00268672,.0020134,4.1991,108.9211,188.5989,198.5963,0,U,41384,999,3302,0,.142E-5,0
IRNSS-1G,2016-027A,2025-03-10T20:29:30.658848,1.00277101,.0006188,4.0628,109.8850,311.8133,183.8934,0,U,41469,999,3253,0,-.351E-5,0
JCSAT-2B,2016-028A,2025-03-10T20:40:38.625024,1.00270597,.0001098,0.0183,148.6965,193.7109,290.5004,0,U,41471,999,3247,0,-.183E-5,0
INTELSAT 31 (IS-31),2016-035A,2025-03-04T14:27:24.425856,1.00269923,.000243,0.0097,159.5833,58.6868,66.1041,0,U,41581,999,3197,0,-.155E-5,0
BEIDOU-2 G7,2016-037A,2025-03-10T20:24:07.881408,1.00270257,.0010569,1.5252,67.4899,332.7522,185.0910,0,U,41586,999,224,0,-.37E-5,0
ABS-2A (MONGOLSAT-1),2016-038A,2025-03-10T20:36:38.655936,1.00268751,.0001973,0.0216,140.0447,153.1210,259.4871,0,U,41588,999,3206,0,-.101E-5,0
EUTELSAT 117 WEST B,2016-038B,2025-03-10T14:10:33.862944,1.00269093,.0000301,0.0394,9.6237,84.8355,169.6721,0,U,41589,999,3201,0,-.29E-6,0
BRISAT,2016-039A,2025-03-10T20:40:38.625024,1.00269274,.0002215,0.0202,165.7241,179.0632,284.6398,0,U,41591,999,3196,0,-.214E-5,0
